STARLINK-30774          
1 58625U 23203H   26068.37429725 -.00000127  00000+0  49106-5 0  9992
2 58625  43.0040  68.8290 0001245 274.6375  85.4334 15.27574396123516
HAWK-11C                
1 62381U 24247E   26068.51221537  .00009223  00000+0  33290-3 0  9992
2 62381  45.0045 114.8762 0005900 329.7040  30.3502 15.28848020 67743
