[{"OBJECT_NAME":"STARLINK-30774","OBJECT_ID":"2023-203H","EPOCH":"2026-03-09T08:58:59.282400","MEAN_MOTION":15.27574396,"ECCENTRICITY":0.00012458,"INCLINATION":43.004,"RA_OF_ASC_NODE":68.829,"ARG_OF_PERICENTER":274.6375,"MEAN_ANOMALY":85.4334,"EPHEMERIS_TYPE":0,"CLASSIFICATION_TYPE":"U","NORAD_CAT_ID":58625,"ELEMENT_SET_NO":999,"REV_AT_EPOCH":12351,"BSTAR":4.910597e-6,"MEAN_MOTION_DOT":-1.27e-6,"MEAN_MOTION_DDOT":0},{"OBJECT_NAME":"HAWK-11C","OBJECT_ID":"2024-247E","EPOCH":"2026-03-09T12:17:35.407968","MEAN_MOTION":15.2884802,"ECCENTRICITY":0.00059001,"INCLINATION":45.0045,"RA_OF_ASC_NODE":114.8762,"ARG_OF_PERICENTER":329.704,"MEAN_ANOMALY":30.3502,"EPHEMERIS_TYPE":0,"CLASSIFICATION_TYPE":"U","NORAD_CAT_ID":62381,"ELEMENT_SET_NO":999,"REV_AT_EPOCH":6774,"BSTAR":0.00033290115,"MEAN_MOTION_DOT":9.223e-5,"MEAN_MOTION_DDOT":0}]
